MESON-1                 
1 59131U 24043AK  26068.90019075  .00008544  00000+0  29748-3 0  9998
2 59131  97.5469 205.2839 0009545 227.1432 132.9007 15.29893494111890
STARLINK-32697          
1 62436U 24251E   26068.98070675  .00012991  00000+0  45008-3 0  9990
2 62436  53.1595 333.9073 0001077 112.6856 247.4259 15.30192065 67999
